NAYIF-1 (EO-88)         
1 42017U 17008BX  20116.90897187  .00001471  00000-0  59366-4 0  9995
2 42017  97.3634 185.2315 0007418 137.3149 222.8667 15.26355906177539
MAX VALIER SAT          
1 42778U 17036P   20116.96322547  .00000843  00000-0  39247-4 0  9997
2 42778  97.3102 172.0376 0011663 198.9490 161.1314 15.22528399157742
RADFXSAT (FOX-1B)       
1 43017U 17073E   20116.75049851  .00000297  00000-0  29016-4 0  9992
2 43017  97.7249  31.0178 0256084 221.8478 136.2907 14.78890044131370
FOX-1D (AO-92)          
1 43137U 18004AC  20116.89405589  .00000934  00000-0  41491-4 0  9998
2 43137  97.4487 188.4045 0007791 234.0299 126.0216 15.24025971127039
DIWATA-2B               
1 43678U 18084H   20117.01603171 -.00000033  00000-0  23980-5 0  9993
2 43678  97.8749 235.4445 0009884 359.4271   0.6940 14.91620496 81203
ES'HAIL 2               
1 43700U 18090A   20117.16438544  .00000149  00000-0  00000+0 0  9991
2 43700   0.0152 257.9261 0001111 122.4865 279.1579  1.00267954  5423
FOX-1CLIFF (AO-95)      
1 43770U 18099N   20116.89979833  .00000158  00000-0  19717-4 0  9997
2 43770  97.7086 189.1883 0014971  18.8137 341.3634 14.94958623 76062
ITASAT 1                
1 43786U 18099AE  20116.64103368 -.00000117  00000-0 -53780-5 0  9995
2 43786  97.7102 189.3156 0015477  13.0401 347.1217 14.95301969 76041
JY1SAT (JO-97)          
1 43803U 18099AX  20116.86242233  .00000269  00000-0  29443-4 0  9998
2 43803  97.7058 189.3650 0015264  12.6487 347.5114 14.95469066 76079
PSAT2 (NO-104)          
1 44354U 19036R   20116.87206546  .00012527  00000-0  18409-3 0  9999
2 44354  28.5304   5.7521 0367665 109.7104 254.3525 15.02709723 45909
BRICSAT2 (NO-103)       
1 44355U 19036S   20116.92449583  .00023326  00000-0  33162-3 0  9998
2 44355  28.5306 359.3557 0349079 120.0929 243.4745 15.07387181 45974
JAISAT-1                
1 44419U 19038F   20117.10081025  .00000877  00000-0  53646-4 0  9991
2 44419  97.5341  79.3293 0020447 314.6870  45.2695 15.12704416 44686
DUCHIFAT-3              
1 44854U 19089C   20117.20655908  .00000464  00000-0  43971-4 0  9990
2 44854  36.9672  47.1103 0008445 350.7827   9.2774 14.99032973 20456
ORBITAL FACTORY 2 (OF-2)
1 45113U 19071C   20116.75509145  .00001521  00000-0  58283-4 0  9997
2 45113  51.6429 258.0831 0012746 225.6973 134.2964 15.33162980 13049
HUSKYSAT-1              
1 45119U 19071J   20116.93678650  .00002114  00000-0  75929-4 0  9996
2 45119  51.6426 257.0471 0012062 222.5096 137.4953 15.33398781 13069
